STARLINK-2604           
1 48374U 21038X   26068.03940903 -.00013185  00000+0 -43406-3 0  9999
2 48374  53.1609 350.8195 0001104  77.5894 282.5231 15.30183966267122
2025-313BC              
1 67298U 25313BC  26068.18968176  .00075331  00000+0  26410-2 0  9997
2 67298  97.3985 144.8110 0008478 328.9209  31.1528 15.29126358  7890
